{"type":"FeatureCollection","features":[{"type":"Feature","geometry":null,"properties":{"asset_id":"bloque_carabobo","site_index":0,"type":"block","radius_km":25,"state":null,"municipality":null,"coordinate_source":null,"coordinate_precision":"unresolved"}},{"type":"Feature","geometry":null,"properties":{"asset_id":"bloque_junin","site_index":0,"type":"block","radius_km":25,"state":null,"municipality":null,"coordinate_source":null,"coordinate_precision":"unresolved"}},{"type":"Feature","geometry":{"type":"Point","coordinates":[-63.4440278,9.6861275]},"properties":{"asset_id":"el_furrial","site_index":0,"type":"field","radius_km":25,"state":"Monagas","municipality":"Maturín","coordinate_source":"https://www.wikidata.org/wiki/Q140901868 (town of El Furrial; used as proxy centroid for the oil field of the same name)","coordinate_precision":"approximate"}},{"type":"Feature","geometry":{"type":"Point","coordinates":[-64.85,10.1]},"properties":{"asset_id":"jose_complex","site_index":0,"type":"complex","radius_km":25,"state":"Anzoátegui","municipality":"Bolívar","coordinate_source":"https://www.wikidata.org/wiki/Q111386768 (reused from backend/data/ve_infrastructure.geojson, 'Jose Terminal (Complejo Industrial Anzoátegui)')","coordinate_precision":"approximate"}},{"type":"Feature","geometry":{"type":"Point","coordinates":[-64.85,10.1]},"properties":{"asset_id":"jose_terminal","site_index":0,"type":"terminal","radius_km":25,"state":"Anzoátegui","municipality":"Bolívar","coordinate_source":"https://www.wikidata.org/wiki/Q111386768 (from backend/data/ve_infrastructure.geojson)","coordinate_precision":"approximate"}},{"type":"Feature","geometry":{"type":"Point","coordinates":[-63.4648268,9.756802]},"properties":{"asset_id":"jusepin","site_index":0,"type":"field","radius_km":25,"state":"Monagas","municipality":"Maturín","coordinate_source":"https://www.wikidata.org/wiki/Q113970003","coordinate_precision":"approximate"}},{"type":"Feature","geometry":{"type":"Point","coordinates":[-63.081666666667,8.8263888888889]},"properties":{"asset_id":"morichal","site_index":0,"type":"town","radius_km":25,"state":"Monagas","municipality":"Maturín","coordinate_source":"https://www.wikidata.org/wiki/Q31957684 (country claim P17=Q717/Venezuela verified; no English/Spanish description on the item itself)","coordinate_precision":"approximate"}},{"type":"Feature","geometry":{"type":"Point","coordinates":[-64.85,10.1]},"properties":{"asset_id":"petrocedeno","site_index":0,"type":"upgrader","radius_km":25,"state":"Anzoátegui","municipality":"Bolívar","coordinate_source":"José complex, upgrader co-located (https://www.wikidata.org/wiki/Q111386768, reused from backend/data/ve_infrastructure.geojson, 'Jose Terminal (Complejo Industrial Anzoátegui)')","coordinate_precision":"approximate"}},{"type":"Feature","geometry":{"type":"Point","coordinates":[-65.1943307,8.3605685]},"properties":{"asset_id":"petrocedeno","site_index":1,"type":"field","radius_km":25,"state":"Anzoátegui","municipality":"Monagas","coordinate_source":"https://nominatim.openstreetmap.org/search?format=jsonv2&q=Zuata%2C+Anzoategui%2C+Venezuela (OSM relation 14435928, 'Zuata'), queried 2026-09-11 - Zuata/Junín producing field area feeding the Petrocedeño upgrader","coordinate_precision":"approximate"}},{"type":"Feature","geometry":{"type":"Point","coordinates":[-64.85,10.1]},"properties":{"asset_id":"petromonagas","site_index":0,"type":"upgrader","radius_km":25,"state":"Anzoátegui","municipality":"Bolívar","coordinate_source":"José complex, upgrader co-located (https://www.wikidata.org/wiki/Q111386768, reused from backend/data/ve_infrastructure.geojson, 'Jose Terminal (Complejo Industrial Anzoátegui)')","coordinate_precision":"approximate"}},{"type":"Feature","geometry":{"type":"Point","coordinates":[-62.6305836,8.6726279]},"properties":{"asset_id":"petromonagas","site_index":1,"type":"field","radius_km":25,"state":"Monagas","municipality":"Sotillo","coordinate_source":"https://nominatim.openstreetmap.org/search?format=jsonv2&q=Uverito%2C+Monagas%2C+Venezuela (OSM node 5244666970, 'Uverito'), queried 2026-09-11 - Cerro Negro producing field / Uverito area feeding the Petromonagas upgrader. A direct query for 'Cerro Negro, Monagas, Venezuela' matched an unrelated mountain peak in Municipio Caripe (OSM node 5464789962, ~185km from Uverito), not the oil field, so Uverito (the named locality at the heart of the Cerro Negro/Hamaca producing area) was used instead.","coordinate_precision":"approximate"}},{"type":"Feature","geometry":{"type":"Point","coordinates":[-64.85,10.1]},"properties":{"asset_id":"petropiar","site_index":0,"type":"upgrader","radius_km":25,"state":"Anzoátegui","municipality":"Bolívar","coordinate_source":"José complex, upgrader co-located (https://www.wikidata.org/wiki/Q111386768, reused from backend/data/ve_infrastructure.geojson, 'Jose Terminal (Complejo Industrial Anzoátegui)')","coordinate_precision":"approximate"}},{"type":"Feature","geometry":{"type":"Point","coordinates":[-64.378295,8.6094516]},"properties":{"asset_id":"petropiar","site_index":1,"type":"field","radius_km":25,"state":"Anzoátegui","municipality":"Miranda","coordinate_source":"https://nominatim.openstreetmap.org/search?format=jsonv2&q=Hamaca%2C+Anzoategui%2C+Venezuela (OSM node 5624304780, 'Campo La Hamaca'), queried 2026-09-11 - Hamaca/Bare producing field feeding the Petropiar upgrader","coordinate_precision":"approximate"}},{"type":"Feature","geometry":{"type":"Point","coordinates":[-63.6110201,9.6865914]},"properties":{"asset_id":"punta_de_mata","site_index":0,"type":"field","radius_km":25,"state":"Monagas","municipality":"Ezequiel Zamora","coordinate_source":"https://www.wikidata.org/wiki/Q631483","coordinate_precision":"approximate"}}]}
